OBJECT_NAME,OBJECT_ID,EPOCH,MEAN_MOTION,ECCENTRICITY,INCLINATION,RA_OF_ASC_NODE,ARG_OF_PERICENTER,MEAN_ANOMALY,EPHEMERIS_TYPE,CLASSIFICATION_TYPE,NORAD_CAT_ID,ELEMENT_SET_NO,REV_AT_EPOCH,BSTAR,MEAN_MOTION_DOT,MEAN_MOTION_DDOT
STRAND-1,2013-009E,2026-07-15T17:45:38.344896,14.37179078,.0009437,98.3935,16.2735,139.6200,220.5689,0,U,39090,999,70116,.55624E-4,.123E-5,0
BRITE-AUSTRIA,2013-009F,2026-07-15T18:22:01.530336,14.36552666,.0010793,98.4008,15.4957,149.0396,211.1429,0,U,39091,999,70115,.39948E-4,.75E-6,0
UNIBRITE,2013-009G,2026-07-15T10:21:49.759488,14.36423830,.00097708,98.4047,15.2882,146.2300,213.9511,0,U,39092,999,70104,.35685729E-4,.62E-6,0
AIST-2 (RS43),2013-015D,2026-07-15T21:17:49.407360,15.26567390,.0017075,64.8680,163.4645,248.2255,111.7059,0,U,39133,999,72828,.12215E-3,.3006E-4,0
GAOFEN-1,2013-018A,2026-07-15T20:44:35.723904,14.76518212,.0017093,97.9091,268.3475,168.9795,191.1792,0,U,39150,999,71247,-.88088E-6,-.57E-6,0
NEE-01 PEGASO,2013-018B,2026-07-15T08:00:06.314688,14.93789204,.00136937,98.1256,341.4213,73.9409,286.3317,0,U,39151,999,71490,.11642538E-3,.1174E-4,0
TURKSAT-3USAT,2013-018C,2026-07-15T16:46:08.990688,14.96590332,.0011952,97.7934,287.4087,11.7900,348.3599,0,U,39152,999,71535,.99089E-4,.107E-4,0
CUBEBUG-1 (CAPITAN BETO),2013-018D,2026-07-15T16:50:59.824320,14.97457878,.0012145,98.1688,357.9201,56.7684,303.4699,0,U,39153,999,71533,.11213E-3,.1242E-4,0
PROBA-V,2013-021A,2026-07-15T19:05:10.373280,14.23603461,.000523,98.3606,173.9925,58.5603,301.6087,0,U,39159,999,68518,.2545E-4,.17E-6,0
ESTCUBE 1,2013-021C,2026-07-15T02:09:38.060640,14.81476763,.00066705,97.7281,249.2943,286.0950,73.9529,0,U,39161,999,70915,.99586911E-4,.73E-5,0
ARIRANG-5 (KOMPSAT-5),2013-042A,2026-07-15T19:56:49.105824,15.04496170,.0005372,97.6203,23.1293,56.4635,303.7103,0,U,39227,999,70816,.38107E-4,.473E-5,0
GONETS-M 5,2013-048A,2026-07-15T20:27:17.296128,12.42892662,.0017382,82.4854,325.5108,148.3014,211.9116,0,U,39249,999,58244,.15034E-3,.31E-6,0
GONETS-M 7,2013-048C,2026-07-15T19:33:11.794176,12.42915528,.0018167,82.4920,328.4713,149.6519,210.5616,0,U,39251,999,58239,.13279E-3,.28E-6,0
FENGYUN 3C,2013-052A,2026-07-15T21:05:05.557920,14.15760898,.0013644,98.4999,169.4389,303.8506,56.1370,0,U,39260,999,66262,.35733E-4,.29E-6,0
CASSIOPE,2013-055A,2026-07-15T17:48:18.456192,15.27441987,.0282773,80.9127,31.9739,326.0242,32.3154,0,U,39265,999,67202,.21046E-3,.19648E-3,-.53165E-6
APRIZESAT 7,2013-066A,2026-07-15T20:46:57.381024,14.91619931,.0037252,97.7723,149.6767,115.1725,245.3365,0,U,39416,999,68550,.57497E-4,.527E-5,0
ZACUBE-1 (TSHEPISOSAT),2013-066B,2026-07-15T20:49:36.712128,15.01330535,.0044051,97.8008,159.3459,153.0544,207.2981,0,U,39417,999,68503,.98374E-4,.1228E-4,0
APRIZESAT 8,2013-066K,2026-07-15T19:03:54.616032,14.87697063,.0045539,97.8230,143.8659,189.8984,170.1340,0,U,39425,999,68392,.46418E-4,.373E-5,0
CINEMA-3 (KHUSAT-2),2013-066L,2026-07-15T07:12:06.693408,14.78353052,.00910848,97.8378,107.7589,120.6372,240.3859,0,U,39426,999,67860,.87771719E-4,.629E-5,0
TRITON-1,2013-066M,2026-07-15T19:02:04.018848,14.81798424,.0090639,97.8229,105.9471,140.1685,220.6228,0,U,39427,999,67832,.17087E-3,.1392E-4,0
DELFI-N3XT,2013-066N,2026-07-15T18:04:56.789184,14.95363016,.0075695,97.8328,117.0413,111.0127,249.9212,0,U,39428,999,67889,.25732E-3,.2944E-4,0
GOMX-1,2013-066Q,2026-07-15T18:48:59.368608,14.69543634,.01282,97.6466,35.4421,346.3187,13.4557,0,U,39430,999,67411,.11195E-3,.701E-5,0
BRITE-PL1 (LEM),2013-066R,2026-07-15T19:16:04.340064,14.51387835,.0188451,97.7982,307.0915,282.3092,75.7064,0,U,39431,999,66808,.50259E-4,.2E-5,0
ICUBE-1,2013-066S,2026-07-15T09:15:14.378976,15.26497804,.00144728,97.5706,182.4207,225.2752,134.7309,0,U,39432,999,68871,.26907419E-3,.6967E-4,0
VELOX-PII,2013-066Y,2026-07-15T20:23:58.754976,14.93255389,.0051051,97.8757,148.2528,247.2968,112.2850,0,U,39438,999,68211,.86732E-4,.868E-5,0
CUBEBUG-2 (LO-74),2013-066AA,2026-07-15T20:45:32.622624,14.93969667,.0055631,97.8915,145.9709,293.0759,66.4601,0,U,39440,999,68127,.19551E-3,.2083E-4,0
NEE-02 KRYSAOR,2013-066AB,2026-07-15T19:31:40.489248,14.86740707,.0065349,97.8897,135.8273,337.2484,22.5838,0,U,39441,999,68045,.13087E-3,.115E-4,0
FUNCUBE-1 (AO-73),2013-066AE,2026-07-15T21:20:20.419008,15.09822727,.003799,97.8290,168.9436,105.4335,255.1095,0,U,39444,999,68399,.22787E-3,.3677E-4,0
HINCUBE,2013-066AF,2026-07-15T19:25:31.931040,15.08590197,.0034696,97.7981,165.7699,112.4452,248.0456,0,U,39445,999,68384,.23973E-3,.3732E-4,0
UWE-3,2013-066AG,2026-07-15T19:42:56.271168,14.97201399,.0047549,97.8715,153.0945,222.4036,137.3508,0,U,39446,999,68186,.17026E-3,.1951E-4,0
SMDC ONE 2.4,2013-072H,2026-07-15T17:04:39.024192,15.18822636,.0148109,120.4897,102.2633,49.0550,312.3238,0,U,39469,999,12216,.34737E-3,.9338E-4,0
CP8 (IPEX),2013-072K,2026-07-15T13:03:26.600832,15.08410788,.01689142,120.4679,46.1972,32.0677,329.0543,0,U,39471,999,11951,.19037415E-3,.3742E-4,0
COSMOS 2488 (RODNIK-S 7),2013-076A,2026-07-15T20:31:38.313984,12.42906704,.0020579,82.4853,150.8355,36.1515,324.0951,0,U,39483,999,56945,.84455E-3,.127E-5,0
COSMOS 2489 (RODNIK-S 8),2013-076B,2026-07-15T21:52:42.839616,12.42880498,.00224,82.4889,152.1886,35.7366,324.5208,0,U,39484,999,56951,.69785E-3,.107E-5,0
COSMOS 2490 (RODNIK-S 9),2013-076C,2026-07-15T21:12:17.371296,12.42879300,.0022784,82.4837,150.2611,50.7050,309.6045,0,U,39485,999,56944,.32864E-3,.56E-6,0
AIST-1 (RS41),2013-078C,2026-07-15T20:27:18.972288,14.96137502,.0016765,82.4143,243.1046,175.8366,184.2999,0,U,39492,999,67953,.40366E-4,.482E-5,0
KAZEOSAT 1,2014-024A,2026-07-15T19:35:57.595776,14.42037121,.0001229,98.3203,268.5497,82.2359,277.8970,0,U,39731,999,64268,.13604E-4,.2E-7,0
COSMOS 2496 (RODNIK-S 10),2014-028A,2026-07-15T20:11:03.626880,12.42879336,.0020837,82.4456,90.7856,19.5564,340.6310,0,U,39761,999,55107,.3733E-3,.62E-6,0
COSMOS 2497 (RODNIK-S 11),2014-028B,2026-07-15T21:30:51.252192,12.42894861,.0021304,82.4506,92.4517,14.4978,345.6709,0,U,39762,999,55108,-.22189E-3,-.21E-6,0
COSMOS 2498 (RODNIK-S 12),2014-028C,2026-07-15T18:59:50.245728,12.42980786,.0022031,82.4465,90.9920,14.2381,345.9315,0,U,39763,999,55110,.21615E-3,.4E-6,0
COSMOS 2499 (RS47),2014-028E,2026-07-15T19:43:31.857600,12.82903264,.0230371,82.4471,233.1062,294.5352,63.1893,0,U,39765,999,56869,.23737E-4,.15E-6,0
HODOYOSHI-4,2014-033B,2026-07-15T19:29:38.253984,14.88193060,.0022665,97.5454,20.2547,207.2742,152.7287,0,U,40011,999,65306,.15073E-3,.1344E-4,0
UNISAT-6,2014-033C,2026-07-15T08:53:25.920096,14.88366752,.00441734,97.7908,348.5932,337.1832,22.7421,0,U,40012,999,65035,.12145461E-3,.1087E-4,0
DEIMOS-2,2014-033D,2026-07-15T20:28:56.029728,14.93794693,.0000963,97.5789,70.3307,108.7602,251.3723,0,U,40013,999,64200,.56927E-4,.549E-5,0
BUGSAT-1 (TITA),2014-033E,2026-07-15T19:39:28.122336,15.15882544,.0028986,98.0433,291.0481,83.7599,276.6933,0,U,40014,999,66017,.14129E-3,.2655E-4,0
SAUDISAT 4,2014-033G,2026-07-15T09:18:10.191744,14.79575661,.00442455,97.7617,341.5528,343.4405,16.5359,0,U,40016,999,65024,.35387269E-4,.216E-5,0
APRIZESAT 9,2014-033J,2026-07-15T07:22:19.852608,14.74252703,.00674439,97.9094,328.8236,109.5826,251.2681,0,U,40018,999,64770,.53331158E-4,.313E-5,0
BRITE-CA1 (TORONTO),2014-033L,2026-07-15T18:40:23.164032,14.72723306,.0078477,97.9773,325.1846,184.3909,175.6620,0,U,40020,999,64642,.87115E-4,.53E-5,0
DUCHIFAT-1,2014-033M,2026-07-15T02:33:22.918464,15.70998071,.00027596,98.0418,259.3300,247.0602,113.0368,0,U,40021,999,66012,.75655471E-3,.95423E-3,0
NANOSATC-BR1,2014-033Q,2026-07-15T00:45:29.023488,15.32325644,.00053019,98.0712,230.9033,95.9115,264.2729,0,U,40024,999,65824,.33334798E-3,.10322E-3,0
QB50P1,2014-033R,2026-07-15T13:14:24.384768,15.18670090,.0010355,98.0962,209.6951,123.5579,236.6643,0,U,40025,999,65733,.21798E-3,.4446E-4,0
DTUSAT-2,2014-033W,2026-07-14T23:23:20.510016,15.15350472,.0009313,98.0873,195.4742,132.4073,227.7947,0,U,40030,999,65689,.18144E-3,.3349E-4,0
QB50P2,2014-033Y,2026-07-15T05:31:30.969120,15.15506307,.0009323,98.0760,194.8648,83.4516,276.7776,0,U,40032,999,65691,.19604245E-3,.3641E-4,0
PERSEUS-M1,2014-033AF,2026-07-15T09:38:56.989536,14.95716338,.00109196,97.9654,141.0000,195.4743,164.6145,0,U,40039,999,65485,.10973457E-3,.1162E-4,0
POLYITAN-1,2014-033AJ,2026-07-15T00:58:39.811584,15.34216227,.00079404,98.0932,224.9562,64.6154,295.5908,0,U,40042,999,65786,.34568491E-3,.11373E-3,0
TIGRISAT,2014-033AK,2026-07-15T09:53:09.453408,14.85249877,.00486192,97.7864,345.7834,343.6307,16.3336,0,U,40043,999,64981,.88930323E-4,.723E-5,0
AISAT,2014-034B,2026-07-15T17:47:42.328032,15.09336593,.0010903,98.2366,111.2384,120.1426,240.0882,0,U,40054,999,65151,.3246E-3,.5113E-4,0
CANX-4,2014-034C,2026-07-15T02:48:59.289696,14.81311066,.00114247,98.3083,72.4512,283.1173,76.8763,0,U,40055,999,64866,.61209325E-4,.42E-5,0
CANX-5,2014-034D,2026-07-15T10:52:36.323616,14.81328706,.00114138,98.3085,72.8445,282.1246,77.8687,0,U,40056,999,63952,.59894875E-4,.41E-5,0
VELOX-I,2014-034E,2026-07-15T18:44:13.756128,14.98125216,.0006972,98.2530,103.4087,162.2247,197.9218,0,U,40057,999,65088,.11198E-3,.1261E-4,0
GONETS-M 10,2014-036C,2026-07-15T21:17:21.971040,12.42946141,.0022941,82.5128,289.8494,81.0297,279.3378,0,U,40063,999,54581,.11818E-3,.26E-6,0
METEOR-M 2,2014-037A,2026-07-15T20:45:05.780736,14.21468417,.0005145,98.5126,171.5899,324.8837,35.2002,0,U,40069,999,62339,-.10319E-3,-.268E-5,0
DX1,2014-037C,2026-07-15T20:01:47.144352,14.90061395,.0007101,98.3877,160.2788,168.5772,191.5607,0,U,40071,999,65037,.69191E-4,.605E-5,0
UKUBE-1,2014-037F,2026-07-15T06:16:21.848736,15.13950237,.00032846,98.4242,202.4925,87.8667,272.2938,0,U,40074,999,65280,.22031185E-3,.3915E-4,0
GAOFEN-2,2014-049A,2026-07-15T19:47:38.311008,14.80929120,.0008275,98.0101,261.0028,132.4821,227.7092,0,U,40118,999,64347,.71302E-4,.498E-5,0
BRITE-PL2 (HEWELIUSZ),2014-049B,2026-07-15T19:48:49.342176,14.94687962,.0014277,97.9120,309.0513,20.1864,339.9917,0,U,40119,999,64572,.49291E-4,.476E-5,0
